ONEWEB-0601             
1 54665U 22166Z   24020.57733394  .00000039  00000+0  62457-4 0  9991
2 54665  87.9215  58.8674 0001290 100.7777 259.3502 13.21824791 55632
ONEWEB-0602             
1 54666U 22166AA  24020.61833704 -.00000126  00000+0 -33760-3 0  9996
2 54666  87.9218  58.8648 0001565 106.9890 253.1416 13.21824696 55489
ONEWEB-0603             
1 54667U 22166AB  24020.62309069  .00000118  00000+0  25512-3 0  9995
2 54667  87.9220  58.8619 0001450 105.8798 254.2496 13.21826304 55410
ONEWEB-0604             
1 54668U 22166AC  24020.61045551 -.00000144  00000+0 -38115-3 0  9992
2 54668  87.9211  58.8556 0002058 106.8487 253.2873 13.21825036 55376
ONEWEB-0605             
1 54669U 22166AD  24020.60414254 -.00000006  00000+0 -45413-4 0  9999
2 54669  87.9211  58.8901 0001209  98.1152 262.0119 13.21824622 55449
ONEWEB-0606             
1 54670U 22166AE  24020.55053341  .00000008  00000+0 -11662-4 0  9991
2 54670  87.9217  58.8830 0002049  93.4932 266.6437 13.21825884 55494
ONEWEB-0607             
1 54671U 22166AF  24020.59312673  .00000062  00000+0  11976-3 0  9998
2 54671  87.9208  58.8572 0001587 104.2258 255.9052 13.21826427 55472
ONEWEB-0608             
1 54672U 22166AG  24020.59942002  .00000050  00000+0  88645-4 0  9999
2 54672  87.9220  58.8690 0001188 104.3724 255.7541 13.21825563 55486
ONEWEB-0610             
1 54673U 22166AH  24020.58050074  .00000063  00000+0  12095-3 0  9997
2 54673  87.9220  58.8744 0001324 100.2217 259.9066 13.21826227 55386
ONEWEB-0611             
1 54674U 22166AJ  24020.57418953  .00000007  00000+0 -13665-4 0  9995
2 54674  87.9219  58.8757 0002336  96.5948 263.5451 13.21825176 55371
ONEWEB-0615             
1 54676U 22166AL  24020.56788382  .00000022  00000+0  21230-4 0  9995
2 54676  87.9212  58.8862 0001751 106.3550 253.7776 13.21827195 55376
ONEWEB-0655             
1 54677U 22166AM  24020.61674986 -.00000166  00000+0 -43339-3 0  9990
2 54677  87.9206  58.8774 0001629 128.4601 231.6679 13.21831854 55372
ONEWEB-0659             
1 54678U 22166AN  24020.55841398 -.00000152  00000+0 -39841-3 0  9995
2 54678  87.9211  58.8975 0002019  89.4665 270.6700 13.21825296 55452
ONEWEB-0685             
1 54679U 22166AP  24020.55999808 -.00000071  00000+0 -20285-3 0  9998
2 54679  87.9213  58.8848 0001642 105.9636 254.1679 13.21824297 55347
ONEWEB-0712             
1 54680U 22166AQ  24020.56608879  .00000050  00000+0  96837-4 0  9998
2 54680  87.9037  43.6528 0002307  94.6441 265.4953 13.16591521 56444
ONEWEB-0532             
1 55140U 23004A   24020.52715947 -.00000239  00000+0 -64794-3 0  9990
2 55140  87.9219 180.5811 0001077  63.6166 296.5076 13.17649364 51870
ONEWEB-0541             
1 55142U 23004C   24020.55003346 -.00000536  00000+0 -15476-2 0  9990
2 55142  87.8967 195.6881 0001344  89.2906 270.8376 13.11422579 50786
ONEWEB-0543             
1 55143U 23004D   24020.36260254  .00000131  00000+0  30074-3 0  9994
2 55143  87.9237 150.4297 0001965 109.2842 250.8503 13.18687197 53878
ONEWEB-0544             
1 55144U 23004E   24020.35626722 -.00000270  00000+0 -71752-3 0  9994
2 55144  87.9236 150.4142 0001614  97.4335 262.6981 13.18686458 53873
ONEWEB-0560             
1 55145U 23004F   24020.42582435  .00000008  00000+0 -12826-4 0  9991
2 55145  87.9244 150.3424 0002036 101.6270 258.5091 13.18685097 53896
ONEWEB-0565             
1 55146U 23004G   24020.41950041  .00000055  00000+0  10638-3 0  9992
2 55146  87.9239 150.4290 0001443  69.5022 290.6265 13.18684942 53888
ONEWEB-0567             
1 55147U 23004H   24020.41319810 -.00000085  00000+0 -24857-3 0  9999
2 55147  87.9237 150.3827 0002053  90.6212 269.5155 13.18687376 53883
ONEWEB-0571             
1 55150U 23004L   24020.39422225  .00000153  00000+0  35594-3 0  9999
2 55150  87.9243 150.3851 0002126  71.9568 288.1795 13.18684437 53880
ONEWEB-0572             
1 55151U 23004M   24020.48286110  .00000058  00000+0  11595-3 0  9990
2 55151  87.9218 180.5976 0001413  85.4178 274.7115 13.17648766 51767
ONEWEB-0573             
1 55152U 23004N   24020.38788898  .00000078  00000+0  16473-3 0  9992
2 55152  87.9238 150.4146 0001804  66.3991 293.7330 13.18686779 53871
