OBJECT_NAME,OBJECT_ID,EPOCH,MEAN_MOTION,ECCENTRICITY,INCLINATION,RA_OF_ASC_NODE,ARG_OF_PERICENTER,MEAN_ANOMALY,EPHEMERIS_TYPE,CLASSIFICATION_TYPE,NORAD_CAT_ID,ELEMENT_SET_NO,REV_AT_EPOCH,BSTAR,MEAN_MOTION_DOT,MEAN_MOTION_DDOT
ONEWEB-0601,2022-166Z,2024-01-20T13:51:21.652416,13.21824791,.000129,87.9215,58.8674,100.7777,259.3502,0,U,54665,999,5563,.62457E-4,.39E-6,0
ONEWEB-0602,2022-166AA,2024-01-20T14:50:24.320256,13.21824696,.0001565,87.9218,58.8648,106.9890,253.1416,0,U,54666,999,5548,-.3376E-3,-.126E-5,0
ONEWEB-0603,2022-166AB,2024-01-20T14:57:15.035616,13.21826304,.000145,87.9220,58.8619,105.8798,254.2496,0,U,54667,999,5541,.25512E-3,.118E-5,0
ONEWEB-0604,2022-166AC,2024-01-20T14:39:03.356064,13.21825036,.0002058,87.9211,58.8556,106.8487,253.2873,0,U,54668,999,5537,-.38115E-3,-.144E-5,0
ONEWEB-0605,2022-166AD,2024-01-20T14:29:57.915456,13.21824622,.0001209,87.9211,58.8901,98.1152,262.0119,0,U,54669,999,5591,-.45413E-4,-.6E-7,0
ONEWEB-0606,2022-166AE,2024-01-20T13:12:46.086624,13.21825884,.0002049,87.9217,58.8830,93.4932,266.6437,0,U,54670,999,5549,-.11662E-4,.8E-7,0
ONEWEB-0607,2022-166AF,2024-01-20T14:14:06.149472,13.21826427,.0001587,87.9208,58.8572,104.2258,255.9052,0,U,54671,999,5547,.11976E-3,.62E-6,0
ONEWEB-0608,2022-166AG,2024-01-20T14:23:09.889728,13.21825563,.0001188,87.9220,58.8690,104.3724,255.7541,0,U,54672,999,5594,.88645E-4,.5E-6,0
ONEWEB-0610,2022-166AH,2024-01-20T13:55:55.263936,13.21826227,.0001324,87.9220,58.8744,100.2217,259.9066,0,U,54673,999,5538,.12095E-3,.63E-6,0
ONEWEB-0611,2022-166AJ,2024-01-20T13:46:49.975392,13.21825176,.0002336,87.9219,58.8757,96.5948,263.5451,0,U,54674,999,5537,-.13665E-4,.7E-7,0
ONEWEB-0615,2022-166AL,2024-01-20T13:37:45.162048,13.21827195,.0001751,87.9212,58.8862,106.3550,253.7776,0,U,54676,999,5537,.2123E-4,.22E-6,0
ONEWEB-0655,2022-166AM,2024-01-20T14:48:07.187904,13.21831854,.0001629,87.9206,58.8774,128.4601,231.6679,0,U,54677,999,5537,-.43339E-3,-.166E-5,0
ONEWEB-0659,2022-166AN,2024-01-20T13:24:06.967872,13.21825296,.0002019,87.9211,58.8975,89.4665,270.6700,0,U,54678,999,5545,-.39841E-3,-.152E-5,0
ONEWEB-0685,2022-166AP,2024-01-20T13:26:23.834112,13.21824297,.0001642,87.9213,58.8848,105.9636,254.1679,0,U,54679,999,5534,-.20285E-3,-.71E-6,0
ONEWEB-0712,2022-166AQ,2024-01-20T13:35:10.071456,13.16591521,.0002307,87.9037,43.6528,94.6441,265.4953,0,U,54680,999,5690,.96837E-4,.5E-6,0
ONEWEB-0532,2023-004A,2024-01-20T12:39:06.578208,13.17649364,.0001077,87.9219,180.5811,63.6166,296.5076,0,U,55140,999,5187,-.64794E-3,-.239E-5,0
ONEWEB-0541,2023-004C,2024-01-20T13:12:02.890944,13.11422579,.0001344,87.8967,195.6881,89.2906,270.8376,0,U,55142,999,5078,-.15476E-2,-.536E-5,0
ONEWEB-0543,2023-004D,2024-01-20T08:42:08.859456,13.18687197,.0001965,87.9237,150.4297,109.2842,250.8503,0,U,55143,999,5387,.30074E-3,.131E-5,0
ONEWEB-0544,2023-004E,2024-01-20T08:33:01.487808,13.18686458,.0001614,87.9236,150.4142,97.4335,262.6981,0,U,55144,999,5387,-.71752E-3,-.27E-5,0
ONEWEB-0560,2023-004F,2024-01-20T10:13:11.223840,13.18685097,.0002036,87.9244,150.3424,101.6270,258.5091,0,U,55145,999,5389,-.12826E-4,.8E-7,0
ONEWEB-0565,2023-004G,2024-01-20T10:04:04.835424,13.18684942,.0001443,87.9239,150.4290,69.5022,290.6265,0,U,55146,999,5388,.10638E-3,.55E-6,0
ONEWEB-0567,2023-004H,2024-01-20T09:55:00.315840,13.18687376,.0002053,87.9237,150.3827,90.6212,269.5155,0,U,55147,999,5388,-.24857E-3,-.85E-6,0
ONEWEB-0571,2023-004L,2024-01-20T09:27:40.802400,13.18684437,.0002126,87.9243,150.3851,71.9568,288.1795,0,U,55150,999,5388,.35594E-3,.153E-5,0
ONEWEB-0572,2023-004M,2024-01-20T11:35:19.199040,13.17648766,.0001413,87.9218,180.5976,85.4178,274.7115,0,U,55151,999,5176,.11595E-3,.58E-6,0
ONEWEB-0573,2023-004N,2024-01-20T09:18:33.607872,13.18686779,.0001804,87.9238,150.4146,66.3991,293.7330,0,U,55152,999,5387,.16473E-3,.78E-6,0
